[
  {
    "COMMENT": "GENERATED VIA SPACETRACK.ORG API",
    "ORIGINATOR": "18 SPCS",
    "NORAD_CAT_ID": "48621",
    "OBJECT_NAME": "HAIYANG 2D",
    "OBJECT_TYPE": "PAYLOAD",
    "CLASSIFICATION_TYPE": "U",
    "INTLDES": "21043A",
    "EPOCH": "2023-04-23 19:02:08",
    "EPOCH_MICROSECONDS": "928960",
    "MEAN_MOTION": "13.83375138",
    "ECCENTRICITY": "0.0009174",
    "INCLINATION": "65.9976",
    "RA_OF_ASC_NODE": "288.7872",
    "ARG_OF_PERICENTER": "255.5292",
    "MEAN_ANOMALY": "104.4749",
    "EPHEMERIS_TYPE": "0",
    "ELEMENT_SET_NO": "999",
    "REV_AT_EPOCH": "9746",
    "BSTAR": "0.000093533",
    "MEAN_MOTION_DOT": "0.00000022",
    "MEAN_MOTION_DDOT": "0",
    "FILE": "3892831",
    "TLE_LINE0": "0 HAIYANG 2D",
    "TLE_LINE1": "1 48621U 21043A   23113.79315890  .00000022  00000-0  93533-4 0  9994",
    "TLE_LINE2": "2 48621  65.9976 288.7872 0009174 255.5292 104.4749 13.83375138 97465",
    "OBJECT_ID": "2021-043A",
    "OBJECT_NUMBER": "48621",
    "SEMIMAJOR_AXIS": "7330.077",
    "PERIOD": "104.093",
    "APOGEE": "958.667",
    "PERIGEE": "945.217",
    "DECAYED": "0"
  },
  {
    "COMMENT": "GENERATED VIA SPACETRACK.ORG API",
    "ORIGINATOR": "18 SPCS",
    "NORAD_CAT_ID": "48621",
    "OBJECT_NAME": "HAIYANG 2D",
    "OBJECT_TYPE": "PAYLOAD",
    "CLASSIFICATION_TYPE": "U",
    "INTLDES": "21043A",
    "EPOCH": "2023-04-24 01:58:34",
    "EPOCH_MICROSECONDS": "34304",
    "MEAN_MOTION": "13.83374761",
    "ECCENTRICITY": "0.0009134",
    "INCLINATION": "65.9975",
    "RA_OF_ASC_NODE": "288.0624",
    "ARG_OF_PERICENTER": "257.4471",
    "MEAN_ANOMALY": "102.5578",
    "EPHEMERIS_TYPE": "0",
    "ELEMENT_SET_NO": "999",
    "REV_AT_EPOCH": "9750",
    "BSTAR": "0.000028908",
    "MEAN_MOTION_DOT": "-0.00000049",
    "MEAN_MOTION_DDOT": "0",
    "FILE": "3893036",
    "TLE_LINE0": "0 HAIYANG 2D",
    "TLE_LINE1": "1 48621U 21043A   23114.08233836 -.00000049  00000-0  28908-4 0  9990",
    "TLE_LINE2": "2 48621  65.9975 288.0624 0009134 257.4471 102.5578 13.83374761 97503",
    "OBJECT_ID": "2021-043A",
    "OBJECT_NUMBER": "48621",
    "SEMIMAJOR_AXIS": "7330.078",
    "PERIOD": "104.093",
    "APOGEE": "958.639",
    "PERIGEE": "945.248",
    "DECAYED": "0"
  },
  {
    "COMMENT": "GENERATED VIA SPACETRACK.ORG API",
    "ORIGINATOR": "18 SPCS",
    "NORAD_CAT_ID": "48621",
    "OBJECT_NAME": "HAIYANG 2D",
    "OBJECT_TYPE": "PAYLOAD",
    "CLASSIFICATION_TYPE": "U",
    "INTLDES": "21043A",
    "EPOCH": "2023-04-24 10:39:05",
    "EPOCH_MICROSECONDS": "340384",
    "MEAN_MOTION": "13.83375016",
    "ECCENTRICITY": "0.0009147",
    "INCLINATION": "65.9976",
    "RA_OF_ASC_NODE": "287.1628",
    "ARG_OF_PERICENTER": "257.1074",
    "MEAN_ANOMALY": "102.8977",
    "EPHEMERIS_TYPE": "0",
    "ELEMENT_SET_NO": "999",
    "REV_AT_EPOCH": "9755",
    "BSTAR": "0.000062538",
    "MEAN_MOTION_DOT": "-0.00000012",
    "MEAN_MOTION_DDOT": "0",
    "FILE": "3893286",
    "TLE_LINE0": "0 HAIYANG 2D",
    "TLE_LINE1": "1 48621U 21043A   23114.44381181 -.00000012  00000-0  62538-4 0  9994",
    "TLE_LINE2": "2 48621  65.9976 287.1628 0009147 257.1074 102.8977 13.83375016 97553",
    "OBJECT_ID": "2021-043A",
    "OBJECT_NUMBER": "48621",
    "SEMIMAJOR_AXIS": "7330.077",
    "PERIOD": "104.093",
    "APOGEE": "958.647",
    "PERIGEE": "945.238",
    "DECAYED": "0"
  },
  {
    "COMMENT": "GENERATED VIA SPACETRACK.ORG API",
    "ORIGINATOR": "18 SPCS",
    "NORAD_CAT_ID": "48621",
    "OBJECT_NAME": "HAIYANG 2D",
    "OBJECT_TYPE": "PAYLOAD",
    "CLASSIFICATION_TYPE": "U",
    "INTLDES": "21043A",
    "EPOCH": "2023-04-24 10:39:05",
    "EPOCH_MICROSECONDS": "340384",
    "MEAN_MOTION": "13.83375016",
    "ECCENTRICITY": "0.0009147",
    "INCLINATION": "65.9976",
    "RA_OF_ASC_NODE": "287.1628",
    "ARG_OF_PERICENTER": "257.1074",
    "MEAN_ANOMALY": "102.8977",
    "EPHEMERIS_TYPE": "0",
    "ELEMENT_SET_NO": "999",
    "REV_AT_EPOCH": "9755",
    "BSTAR": "0.000062538",
    "MEAN_MOTION_DOT": "-0.00000012",
    "MEAN_MOTION_DDOT": "0",
    "FILE": "3893330",
    "TLE_LINE0": "0 HAIYANG 2D",
    "TLE_LINE1": "1 48621U 21043A   23114.44381181 -.00000012  00000-0  62538-4 0  9994",
    "TLE_LINE2": "2 48621  65.9976 287.1628 0009147 257.1074 102.8977 13.83375016 97553",
    "OBJECT_ID": "2021-043A",
    "OBJECT_NUMBER": "48621",
    "SEMIMAJOR_AXIS": "7330.077",
    "PERIOD": "104.093",
    "APOGEE": "958.647",
    "PERIGEE": "945.238",
    "DECAYED": "0"
  },
  {
    "COMMENT": "GENERATED VIA SPACETRACK.ORG API",
    "ORIGINATOR": "18 SPCS",
    "NORAD_CAT_ID": "48621",
    "OBJECT_NAME": "HAIYANG 2D",
    "OBJECT_TYPE": "PAYLOAD",
    "CLASSIFICATION_TYPE": "U",
    "INTLDES": "21043A",
    "EPOCH": "2023-04-24 19:19:36",
    "EPOCH_MICROSECONDS": "692256",
    "MEAN_MOTION": "13.83375205",
    "ECCENTRICITY": "0.0009161",
    "INCLINATION": "65.9976",
    "RA_OF_ASC_NODE": "286.2675",
    "ARG_OF_PERICENTER": "255.2036",
    "MEAN_ANOMALY": "104.8045",
    "EPHEMERIS_TYPE": "0",
    "ELEMENT_SET_NO": "999",
    "REV_AT_EPOCH": "9760",
    "BSTAR": "0.000081781",
    "MEAN_MOTION_DOT": "0.00000009",
    "MEAN_MOTION_DDOT": "0",
    "FILE": "3893512",
    "TLE_LINE0": "0 HAIYANG 2D",
    "TLE_LINE1": "1 48621U 21043A   23114.80528579  .00000009  00000-0  81781-4 0  9994",
    "TLE_LINE2": "2 48621  65.9976 286.2675 0009161 255.2036 104.8045 13.83375205 97602",
    "OBJECT_ID": "2021-043A",
    "OBJECT_NUMBER": "48621",
    "SEMIMAJOR_AXIS": "7330.077",
    "PERIOD": "104.093",
    "APOGEE": "958.657",
    "PERIGEE": "945.227",
    "DECAYED": "0"
  },
  {
    "COMMENT": "GENERATED VIA SPACETRACK.ORG API",
    "ORIGINATOR": "18 SPCS",
    "NORAD_CAT_ID": "48621",
    "OBJECT_NAME": "HAIYANG 2D",
    "OBJECT_TYPE": "PAYLOAD",
    "CLASSIFICATION_TYPE": "U",
    "INTLDES": "21043A",
    "EPOCH": "2023-04-25 10:56:32",
    "EPOCH_MICROSECONDS": "972352",
    "MEAN_MOTION": "13.83375687",
    "ECCENTRICITY": "0.0009104",
    "INCLINATION": "65.9982",
    "RA_OF_ASC_NODE": "284.643",
    "ARG_OF_PERICENTER": "257.3002",
    "MEAN_ANOMALY": "102.7035",
    "EPHEMERIS_TYPE": "0",
    "ELEMENT_SET_NO": "999",
    "REV_AT_EPOCH": "9769",
    "BSTAR": "0.000098612",
    "MEAN_MOTION_DOT": "0.00000027",
    "MEAN_MOTION_DDOT": "0",
    "FILE": "3894064",
    "TLE_LINE0": "0 HAIYANG 2D",
    "TLE_LINE1": "1 48621U 21043A   23115.45593718  .00000027  00000-0  98612-4 0  9994",
    "TLE_LINE2": "2 48621  65.9982 284.6430 0009104 257.3002 102.7035 13.83375687 97692",
    "OBJECT_ID": "2021-043A",
    "OBJECT_NUMBER": "48621",
    "SEMIMAJOR_AXIS": "7330.075",
    "PERIOD": "104.093",
    "APOGEE": "958.613",
    "PERIGEE": "945.267",
    "DECAYED": "0"
  },
  {
    "COMMENT": "GENERATED VIA SPACETRACK.ORG API",
    "ORIGINATOR": "18 SPCS",
    "NORAD_CAT_ID": "48621",
    "OBJECT_NAME": "HAIYANG 2D",
    "OBJECT_TYPE": "PAYLOAD",
    "CLASSIFICATION_TYPE": "U",
    "INTLDES": "21043A",
    "EPOCH": "2023-04-25 10:56:32",
    "EPOCH_MICROSECONDS": "972352",
    "MEAN_MOTION": "13.83375687",
    "ECCENTRICITY": "0.0009104",
    "INCLINATION": "65.9982",
    "RA_OF_ASC_NODE": "284.643",
    "ARG_OF_PERICENTER": "257.3002",
    "MEAN_ANOMALY": "102.7035",
    "EPHEMERIS_TYPE": "0",
    "ELEMENT_SET_NO": "999",
    "REV_AT_EPOCH": "9769",
    "BSTAR": "0.000098612",
    "MEAN_MOTION_DOT": "0.00000027",
    "MEAN_MOTION_DDOT": "0",
    "FILE": "3894092",
    "TLE_LINE0": "0 HAIYANG 2D",
    "TLE_LINE1": "1 48621U 21043A   23115.45593718  .00000027  00000-0  98612-4 0  9994",
    "TLE_LINE2": "2 48621  65.9982 284.6430 0009104 257.3002 102.7035 13.83375687 97692",
    "OBJECT_ID": "2021-043A",
    "OBJECT_NUMBER": "48621",
    "SEMIMAJOR_AXIS": "7330.075",
    "PERIOD": "104.093",
    "APOGEE": "958.613",
    "PERIGEE": "945.267",
    "DECAYED": "0"
  },
  {
    "COMMENT": "GENERATED VIA SPACETRACK.ORG API",
    "ORIGINATOR": "18 SPCS",
    "NORAD_CAT_ID": "48621",
    "OBJECT_NAME": "HAIYANG 2D",
    "OBJECT_TYPE": "PAYLOAD",
    "CLASSIFICATION_TYPE": "U",
    "INTLDES": "21043A",
    "EPOCH": "2023-04-26 02:33:29",
    "EPOCH_MICROSECONDS": "395008",
    "MEAN_MOTION": "13.83375788",
    "ECCENTRICITY": "0.0009091",
    "INCLINATION": "65.998",
    "RA_OF_ASC_NODE": "283.0224",
    "ARG_OF_PERICENTER": "257.5402",
    "MEAN_ANOMALY": "102.4659",
    "EPHEMERIS_TYPE": "0",
    "ELEMENT_SET_NO": "999",
    "REV_AT_EPOCH": "9778",
    "BSTAR": "0.00016198",
    "MEAN_MOTION_DOT": "0.00000097",
    "MEAN_MOTION_DDOT": "0",
    "FILE": "3894235",
    "TLE_LINE0": "0 HAIYANG 2D",
    "TLE_LINE1": "1 48621U 21043A   23116.10659022  .00000097  00000-0  16198-3 0  9993",
    "TLE_LINE2": "2 48621  65.9980 283.0224 0009091 257.5402 102.4659 13.83375788 97786",
    "OBJECT_ID": "2021-043A",
    "OBJECT_NUMBER": "48621",
    "SEMIMAJOR_AXIS": "7330.075",
    "PERIOD": "104.093",
    "APOGEE": "958.603",
    "PERIGEE": "945.276",
    "DECAYED": "0"
  }
]